$$SOE
2460721.500000000, A.D. 2025-Feb-15 00:00:00.0000, 4.049625365341861E+08, -1.284900274353931E+08, 6.745867262499698E+06,
2460728.500000000, A.D. 2025-Feb-22 00:00:00.0000, 4.075394986265994E+08, -1.180574691325117E+08, 6.815082312176444E+06,
2460735.500000000, A.D. 2025-Mar-01 00:00:00.0000, 4.098575601049071E+08, -1.075499591304164E+08, 6.879967060602378E+06,
2460742.500000000, A.D. 2025-Mar-08 00:00:00.0000, 4.119142177550103E+08, -9.697390070107129E+07, 6.940462616429597E+06,
2460749.500000000, A.D. 2025-Mar-15 00:00:00.0000, 4.137071243592247E+08, -8.633579209035356E+07, 6.996512564216875E+06,
2460756.500000000, A.D. 2025-Mar-22 00:00:00.0000, 4.152340906715454E+08, -7.564222264399076E+07, 7.048063289827265E+06,
2460763.500000000, A.D. 2025-Mar-29 00:00:00.0000, 4.164930887138265E+08, -6.489987099230256E+07, 7.095063996647656E+06,
2460770.500000000, A.D. 2025-Apr-05 00:00:00.0000, 4.174822567067876E+08, -5.411550215224376E+07, 7.137466638647726E+06,
2460777.500000000, A.D. 2025-Apr-12 00:00:00.0000, 4.181999037003410E+08, -4.329596344035945E+07, 7.175225955032798E+06,
2460784.500000000, A.D. 2025-Apr-19 00:00:00.0000, 4.186445137064368E+08, -3.244818007671595E+07, 7.208299551243236E+06,
2460791.500000000, A.D. 2025-Apr-26 00:00:00.0000, 4.188147495958385E+08, -2.157915068206362E+07, 7.236647984371347E+06,
2460798.500000000, A.D. 2025-May-03 00:00:00.0000, 4.187094568618837E+08, -1.069594264868171E+07, 7.260234843742337E+06,
2460805.500000000, A.D. 2025-May-10 00:00:00.0000, 4.183276672690837E+08, 1.943126236194493E+05, 7.279026824404770E+06,
2460812.500000000, A.D. 2025-May-17 00:00:00.0000, 4.176686024126063E+08, 1.108442458442372E+07, 7.292993786521447E+06,
2460819.500000000, A.D. 2025-May-24 00:00:00.0000, 4.167316773515859E+08, 2.196714842603814E+07, 7.302108779940384E+06,
2460826.500000000, A.D. 2025-May-31 00:00:00.0000, 4.155165047213414E+08, 3.283519032122366E+07, 7.306348020561598E+06,
2460833.500000000, A.D. 2025-Jun-07 00:00:00.0000, 4.140228989097673E+08, 4.368121420843655E+07, 7.305690953405138E+06,
2460840.500000000, A.D. 2025-Jun-14 00:00:00.0000, 4.122508779238406E+08, 5.449784945658122E+07, 7.300120565031108E+06,
2460847.500000000, A.D. 2025-Jun-21 00:00:00.0000, 4.102006641554284E+08, 6.527769613260266E+07, 7.289623566428065E+06,
2460854.500000000, A.D. 2025-Jun-28 00:00:00.0000, 4.078726871622549E+08, 7.601332962980038E+07, 7.274190303200319E+06,
2460861.500000000, A.D. 2025-Jul-05 00:00:00.0000, 4.052675869346524E+08, 8.669730680777758E+07, 7.253814708181813E+06,
2460868.500000000, A.D. 2025-Jul-12 00:00:00.0000, 4.023862164464757E+08, 9.732217283194527E+07, 7.228494339852214E+06,
2460875.500000000, A.D. 2025-Jul-19 00:00:00.0000, 3.992296436688202E+08, 1.078804681287193E+08, 7.198230441971645E+06,
2460882.500000000, A.D. 2025-Jul-26 00:00:00.0000, 3.957991532439637E+08, 1.183647353898606E+08, 7.163028000169590E+06,
2460889.500000000, A.D. 2025-Aug-02 00:00:00.0000, 3.920962478711015E+08, 1.287675266378142E+08, 7.122895790819101E+06,
2460896.500000000, A.D. 2025-Aug-09 00:00:00.0000, 3.881226494139327E+08, 1.390814103289903E+08, 7.077846418612130E+06,
2460903.500000000, A.D. 2025-Aug-16 00:00:00.0000, 3.838802997965286E+08, 1.492989784244070E+08, 7.027896330745086E+06,
2460910.500000000, A.D. 2025-Aug-23 00:00:00.0000, 3.793713619732744E+08, 1.594128534356655E+08, 6.973065782589056E+06,
2460917.500000000, A.D. 2025-Aug-30 00:00:00.0000, 3.745982212955965E+08, 1.694156961482083E+08, 6.913378783194967E+06,
2460924.500000000, A.D. 2025-Sep-06 00:00:00.0000, 3.695634858483472E+08, 1.793002150089262E+08, 6.848863232600152E+06,
2460931.500000000, A.D. 2025-Sep-13 00:00:00.0000, 3.642699840793068E+08, 1.890591746843102E+08, 6.779551201875910E+06,
2460938.500000000, A.D. 2025-Sep-20 00:00:00.0000, 3.587207629925917E+08, 1.986854021302594E+08, 6.705478921412736E+06,
2460945.500000000, A.D. 2025-Sep-27 00:00:00.0000, 3.529190879571940E+08, 2.081717932677236E+08, 6.626686634219527E+06,
2460952.500000000, A.D. 2025-Oct-04 00:00:00.0000, 3.468684421060818E+08, 2.175113207878606E+08, 6.543218543179184E+06,
2460959.500000000, A.D. 2025-Oct-11 00:00:00.0000, 3.405725249470974E+08, 2.266970421284690E+08, 6.455122809496984E+06,
2460966.500000000, A.D. 2025-Oct-18 00:00:00.0000, 3.340352504655930E+08, 2.357221073310789E+08, 6.362451553836465E+06,
2460973.500000000, A.D. 2025-Oct-25 00:00:00.0000, 3.272607448551527E+08, 2.445797667726555E+08, 6.265260848089263E+06,
2460980.500000000, A.D. 2025-Nov-01 00:00:00.0000, 3.202533439129788E+08, 2.532633787699068E+08, 6.163610695205063E+06,
2460987.500000000, A.D. 2025-Nov-08 00:00:00.0000, 3.130175901320922E+08, 2.617664170074183E+08, 6.057564991098911E+06,
2460994.500000000, A.D. 2025-Nov-15 00:00:00.0000, 3.055582296368948E+08, 2.700824777144883E+08, 5.947191450059503E+06,
2461001.500000000, A.D. 2025-Nov-22 00:00:00.0000, 2.978802093657205E+08, 2.782052867948736E+08, 5.832561474452421E+06,
2461008.500000000, A.D. 2025-Nov-29 00:00:00.0000, 2.899886743495626E+08, 2.861287080268993E+08, 5.713750075067967E+06,
2461015.500000000, A.D. 2025-Dec-06 00:00:00.0000, 2.818889628098621E+08, 2.938467521797525E+08, 5.590836039689228E+06,
2461022.500000000, A.D. 2025-Dec-13 00:00:00.0000, 2.735865995131985E+08, 3.013535836629948E+08, 5.463902035158902E+06,
2461029.500000000, A.D. 2025-Dec-20 00:00:00.0000, 2.650872908870508E+08, 3.086435257181623E+08, 5.333034406126693E+06,
2461036.500000000, A.D. 2025-Dec-27 00:00:00.0000, 2.563969208307457E+08, 3.157110667245339E+08, 5.198322980416238E+06,
2461043.500000000, A.D. 2026-Jan-03 00:00:00.0000, 2.475215457689216E+08, 3.225508669858774E+08, 5.059860964626893E+06,
2461050.500000000, A.D. 2026-Jan-10 00:00:00.0000, 2.384673890656998E+08, 3.291577653033621E+08, 4.917744864639133E+06,
2461057.500000000, A.D. 2026-Jan-17 00:00:00.0000, 2.292408350418471E+08, 3.355267852277561E+08, 4.772074402425751E+06,
2461064.500000000, A.D. 2026-Jan-24 00:00:00.0000, 2.198484226834583E+08, 3.416531409988104E+08, 4.622952424117610E+06,
2461071.500000000, A.D. 2026-Jan-31 00:00:00.0000, 2.102968390770293E+08, 3.475322431503609E+08, 4.470484796842396E+06,
2461078.500000000, A.D. 2026-Feb-07 00:00:00.0000, 2.005929126446853E+08, 3.531597037106292E+08, 4.314780284337118E+06,
2461085.500000000, A.D. 2026-Feb-14 00:00:00.0000, 1.907436064458378E+08, 3.585313409705513E+08, 4.155950377242625E+06,
2461092.500000000, A.D. 2026-Feb-21 00:00:00.0000, 1.807560119478173E+08, 3.636431843868139E+08, 3.994109089999631E+06,
2461099.500000000, A.D. 2026-Feb-28 00:00:00.0000, 1.706373421973447E+08, 3.684914807613508E+08, 3.829372918174773E+06,
2461106.500000000, A.D. 2026-Mar-07 00:00:00.0000, 1.603949223478725E+08, 3.730726997333027E+08, 3.661860986056566E+06,
2461113.500000000, A.D. 2026-Mar-14 00:00:00.0000, 1.500361803321730E+08, 3.773835362442997E+08, 3.491694940183133E+06,
2461120.500000000, A.D. 2026-Mar-21 00:00:00.0000, 1.395686394836844E+08, 3.814209128711023E+08, 3.318998662305236E+06,
2461127.500000000, A.D. 2026-Mar-28 00:00:00.0000, 1.289999111172103E+08, 3.851819830452850E+08, 3.143898070201725E+06,
2461134.500000000, A.D. 2026-Apr-04 00:00:00.0000, 1.183376864837027E+08, 3.886641341857151E+08, 2.966520983140647E+06,
2461141.500000000, A.D. 2026-Apr-11 00:00:00.0000, 1.075897283920069E+08, 3.918649903761105E+08, 2.786996997795165E+06,
2461148.500000000, A.D. 2026-Apr-18 00:00:00.0000, 9.676386267517029E+07, 3.947824145732324E+08, 2.605457359866053E+06,
2461155.500000000, A.D. 2026-Apr-25 00:00:00.0000, 8.586796956388198E+07, 3.974145103542745E+08, 2.422034829027563E+06,
2461162.500000000, A.D. 2026-May-02 00:00:00.0000, 7.490997501376508E+07, 3.997596231714972E+08, 2.236863532791853E+06,
2461169.500000000, A.D. 2026-May-09 00:00:00.0000, 6.389784212831488E+07, 4.018163410498049E+08, 2.050078793301851E+06,
2461176.500000000, A.D. 2026-May-16 00:00:00.0000, 5.283956307468294E+07, 4.035834948702796E+08, 1.861816904342145E+06,
2461183.500000000, A.D. 2026-May-23 00:00:00.0000, 4.174315156532334E+07, 4.050601592679996E+08, 1.672214937631965E+06,
2461190.500000000, A.D. 2026-May-30 00:00:00.0000, 3.061663385001734E+07, 4.062456544672623E+08, 1.481410795022488E+06,
2461197.500000000, A.D. 2026-Jun-06 00:00:00.0000, 1.946803792038497E+07, 4.071395457788265E+08, 1.289543268455446E+06,
2461204.500000000, A.D. 2026-Jun-13 00:00:00.0000, 8.305384607470318E+06, 4.077416409624797E+08, 1.096751788238943E+06,
2461211.500000000, A.D. 2026-Jun-20 00:00:00.0000, -2.863319910201347E+06, 4.080519883904667E+08, 9.031761445187032E+05,
2461218.500000000, A.D. 2026-Jun-27 00:00:00.0000, -1.403009186789948E+07, 4.080708756773614E+08, 7.089563097940385E+05,
2461225.500000000, A.D. 2026-Jul-04 00:00:00.0000, -2.518697792946314E+07, 4.077988280073446E+08, 5.142322992726862E+05,
2461232.500000000, A.D. 2026-Jul-11 00:00:00.0000, -3.632606318647757E+07, 4.072366060351023E+08, 3.191440350824296E+05,
2461239.500000000, A.D. 2026-Jul-18 00:00:00.0000, -4.743947903431036E+07, 4.063852033955146E+08, 1.238312079841197E+05,
2461246.500000000, A.D. 2026-Jul-25 00:00:00.0000, -5.851941088628542E+07, 4.052458438350900E+08, -7.156686538136005E+04,
2461253.500000000, A.D. 2026-Aug-01 00:00:00.0000, -6.955810566433477E+07, 4.038199779278946E+08, -2.669113979749382E+05,
2461260.500000000, A.D. 2026-Aug-08 00:00:00.0000, -8.054787883860515E+07, 4.021092793515186E+08, -4.620643230751455E+05,
2461267.500000000, A.D. 2026-Aug-15 00:00:00.0000, -9.148112058964942E+07, 4.001156411858537E+08, -6.568885213200152E+05,
2461274.500000000, A.D. 2026-Aug-22 00:00:00.0000, -1.023503018439016E+08, 3.978411734705541E+08, -8.512479144284427E+05,
2461281.500000000, A.D. 2026-Aug-29 00:00:00.0000, -1.131479824595324E+08, 3.952882006630238E+08, -1.045007327932060E+06,
2461288.500000000, A.D. 2026-Sep-05 00:00:00.0000, -1.238668194181286E+08, 3.924592561379793E+08, -1.238032552492946E+06,
$$EOE